{
  "norad_id": 58360,
  "name": "STARLINK-30897",
  "history": [
    {
      "epoch": "2026-03-28T17:13:14.183328Z",
      "apogee_km": 560.0640288734203,
      "perigee_km": 558.1014894035598,
      "latitude_deg": -5.077389187565927e-05,
      "longitude_deg": 164.12808762113426,
      "height_km": 558.9953688080578,
      "semi_major_axis_km": 6937.219759138489,
      "eccentricity": 0.00014145,
      "inclination_deg": 43.0024,
      "raan_deg": 248.5712,
      "arg_perigee_deg": 262.2001,
      "mean_anomaly_deg": 97.868,
      "mean_motion_rev_day": 15.02534952
    },
    {
      "epoch": "2026-03-29T02:47:35.893824Z",
      "apogee_km": 559.9832208130665,
      "perigee_km": 558.1490243074613,
      "latitude_deg": 7.456381158170991e-06,
      "longitude_deg": 17.977052556545058,
      "height_km": 558.9536839384729,
      "semi_major_axis_km": 6937.203122560264,
      "eccentricity": 0.0001322,
      "inclination_deg": 43.0021,
      "raan_deg": 246.4037,
      "arg_perigee_deg": 263.2223,
      "mean_anomaly_deg": 96.8469,
      "mean_motion_rev_day": 15.02540357
    },
    {
      "epoch": "2026-03-29T02:47:35.894688Z",
      "apogee_km": 559.9829433249415,
      "perigee_km": 558.1493017955863,
      "latitude_deg": 4.334134966467081e-06,
      "longitude_deg": 17.97704561705702,
      "height_km": 558.9536511942615,
      "semi_major_axis_km": 6937.203122560264,
      "eccentricity": 0.00013216,
      "inclination_deg": 43.0021,
      "raan_deg": 246.4037,
      "arg_perigee_deg": 263.2223,
      "mean_anomaly_deg": 96.8469,
      "mean_motion_rev_day": 15.02540357
    },
    {
      "epoch": "2026-03-30T10:42:10.272672Z",
      "apogee_km": 560.0208429081058,
      "perigee_km": 558.1538970856518,
      "latitude_deg": -1.6299893313061755e-05,
      "longitude_deg": -109.20099565281822,
      "height_km": 558.8269467148779,
      "semi_major_axis_km": 6937.2243699968785,
      "eccentricity": 0.00013456,
      "inclination_deg": 43.0021,
      "raan_deg": 239.1794,
      "arg_perigee_deg": 272.4437,
      "mean_anomaly_deg": 87.6251,
      "mean_motion_rev_day": 15.02533454
    },
    {
      "epoch": "2026-03-30T17:05:05.778816Z",
      "apogee_km": 560.0632358878493,
      "perigee_km": 558.1688108322314,
      "latitude_deg": 5.608772655570613e-06,
      "longitude_deg": 153.36154949904346,
      "height_km": 558.8657998886621,
      "semi_major_axis_km": 6937.25302336004,
      "eccentricity": 0.00013654,
      "inclination_deg": 43.003,
      "raan_deg": 237.7353,
      "arg_perigee_deg": 271.7977,
      "mean_anomaly_deg": 88.2709,
      "mean_motion_rev_day": 15.02524145
    },
    {
      "epoch": "2026-03-31T10:38:06.380160Z",
      "apogee_km": 560.0338896625535,
      "perigee_km": 558.1803967723699,
      "latitude_deg": -1.6843592363088547e-05,
      "longitude_deg": -114.58523883748884,
      "height_km": 558.8915237293352,
      "semi_major_axis_km": 6937.244143217462,
      "eccentricity": 0.00013359,
      "inclination_deg": 43.0039,
      "raan_deg": 233.7618,
      "arg_perigee_deg": 269.7022,
      "mean_anomaly_deg": 90.3667,
      "mean_motion_rev_day": 15.0252703
    },
    {
      "epoch": "2026-04-01T15:21:12.037824Z",
      "apogee_km": 560.0345269241016,
      "perigee_km": 558.1392773540365,
      "latitude_deg": 9.39081555070296e-06,
      "longitude_deg": 166.95960097288926,
      "height_km": 558.8967382628815,
      "semi_major_axis_km": 6937.223902139069,
      "eccentricity": 0.0001366,
      "inclination_deg": 43.0027,
      "raan_deg": 227.2596,
      "arg_perigee_deg": 268.1624,
      "mean_anomaly_deg": 91.9062,
      "mean_motion_rev_day": 15.02533606
    },
    {
      "epoch": "2026-04-02T15:17:07.029888Z",
      "apogee_km": 559.9976358028152,
      "perigee_km": 558.13527416329,
      "latitude_deg": -5.7942840030184574e-05,
      "longitude_deg": 161.57864651349442,
      "height_km": 558.9075504447587,
      "semi_major_axis_km": 6937.203454983052,
      "eccentricity": 0.00013423,
      "inclination_deg": 43.0027,
      "raan_deg": 221.8407,
      "arg_perigee_deg": 266.2029,
      "mean_anomaly_deg": 93.8659,
      "mean_motion_rev_day": 15.02540249
    },
    {
      "epoch": "2026-04-02T20:04:18.098976Z",
      "apogee_km": 560.0511469168086,
      "perigee_km": 558.0750161015903,
      "latitude_deg": -1.70240830687593e-05,
      "longitude_deg": 88.50219829340492,
      "height_km": 558.883895323399,
      "semi_major_axis_km": 6937.2000815092,
      "eccentricity": 0.00014243,
      "inclination_deg": 43.0026,
      "raan_deg": 220.7569,
      "arg_perigee_deg": 267.6028,
      "mean_anomaly_deg": 92.4651,
      "mean_motion_rev_day": 15.02541345
    },
    {
      "epoch": "2026-04-03T16:48:47.043936Z",
      "apogee_km": 560.032230169003,
      "perigee_km": 558.173049945467,
      "latitude_deg": 3.0076978546664774e-05,
      "longitude_deg": 131.83372663937823,
      "height_km": 558.7844608840901,
      "semi_major_axis_km": 6937.239640057234,
      "eccentricity": 0.000134,
      "inclination_deg": 43.0014,
      "raan_deg": 216.0608,
      "arg_perigee_deg": 276.0189,
      "mean_anomaly_deg": 84.0501,
      "mean_motion_rev_day": 15.02528493
    },
    {
      "epoch": "2026-04-04T15:08:57.469344Z",
      "apogee_km": 560.2285557509103,
      "perigee_km": 557.8976565152507,
      "latitude_deg": -1.062359249918722e-05,
      "longitude_deg": 150.81542707110756,
      "height_km": 558.7029259956591,
      "semi_major_axis_km": 6937.20010613308,
      "eccentricity": 0.000168,
      "inclination_deg": 43.0022,
      "raan_deg": 211.0033,
      "arg_perigee_deg": 276.8916,
      "mean_anomaly_deg": 83.1735,
      "mean_motion_rev_day": 15.02541337
    },
    {
      "epoch": "2026-04-05T07:06:13.663008Z",
      "apogee_km": 559.7633501098335,
      "perigee_km": 558.3204169020637,
      "latitude_deg": 3.3352662512245816e-06,
      "longitude_deg": -92.77036048346856,
      "height_km": 558.9062183968041,
      "semi_major_axis_km": 6937.178883505948,
      "eccentricity": 0.000104,
      "inclination_deg": 42.9999,
      "raan_deg": 207.3902,
      "arg_perigee_deg": 263.195,
      "mean_anomaly_deg": 96.8774,
      "mean_motion_rev_day": 15.02548232
    },
    {
      "epoch": "2026-04-05T16:40:36.404256Z",
      "apogee_km": 560.0768181572375,
      "perigee_km": 558.1024834524187,
      "latitude_deg": -6.407777531198442e-05,
      "longitude_deg": 121.07736324176244,
      "height_km": 558.7769067501499,
      "semi_major_axis_km": 6937.226650804828,
      "eccentricity": 0.0001423,
      "inclination_deg": 43.0023,
      "raan_deg": 205.2259,
      "arg_perigee_deg": 275.3601,
      "mean_anomaly_deg": 84.7078,
      "mean_motion_rev_day": 15.02532713
    },
    {
      "epoch": "2026-04-06T07:02:09.564000Z",
      "apogee_km": 560.2613337908715,
      "perigee_km": 557.8155632147464,
      "latitude_deg": 4.1026326826532726e-05,
      "longitude_deg": -98.15230338802505,
      "height_km": 558.4947794476327,
      "semi_major_axis_km": 6937.175448502809,
      "eccentricity": 0.00017628,
      "inclination_deg": 43.0006,
      "raan_deg": 201.974,
      "arg_perigee_deg": 285.325,
      "mean_anomaly_deg": 74.7398,
      "mean_motion_rev_day": 15.02549348
    },
    {
      "epoch": "2026-04-07T14:56:43.554912Z",
      "apogee_km": 560.0568572005868,
      "perigee_km": 558.1227583665777,
      "latitude_deg": -1.1851937290989731e-05,
      "longitude_deg": 134.6716336261392,
      "height_km": 558.7322371590506,
      "semi_major_axis_km": 6937.226807783582,
      "eccentricity": 0.0001394,
      "inclination_deg": 43.0037,
      "raan_deg": 194.7501,
      "arg_perigee_deg": 278.1544,
      "mean_anomaly_deg": 81.914,
      "mean_motion_rev_day": 15.02532662
    },
    {
      "epoch": "2026-04-07T14:56:43.555776Z",
      "apogee_km": 560.0566490837837,
      "perigee_km": 558.1229664833818,
      "latitude_deg": 5.443120057782687e-05,
      "longitude_deg": 134.6717006980738,
      "height_km": 558.7322577747283,
      "semi_major_axis_km": 6937.226807783582,
      "eccentricity": 0.00013937,
      "inclination_deg": 43.0037,
      "raan_deg": 194.7501,
      "arg_perigee_deg": 278.1545,
      "mean_anomaly_deg": 81.914,
      "mean_motion_rev_day": 15.02532662
    },
    {
      "epoch": "2026-04-08T13:16:55.319520Z",
      "apogee_km": 560.0138274166347,
      "perigee_km": 558.1683859956875,
      "latitude_deg": 3.907388031023585e-05,
      "longitude_deg": 153.64673429932233,
      "height_km": 558.7917105509671,
      "semi_major_axis_km": 6937.22810670616,
      "eccentricity": 0.00013301,
      "inclination_deg": 43.0026,
      "raan_deg": 189.6915,
      "arg_perigee_deg": 274.8998,
      "mean_anomaly_deg": 85.1693,
      "mean_motion_rev_day": 15.0253224
    },
    {
      "epoch": "2026-04-09T06:49:55.817184Z",
      "apogee_km": 560.0759314039178,
      "perigee_km": 558.0938283683963,
      "latitude_deg": -4.1967507875712426e-05,
      "longitude_deg": -114.29978649683179,
      "height_km": 558.8533515964896,
      "semi_major_axis_km": 6937.221879886157,
      "eccentricity": 0.00014286,
      "inclination_deg": 43.0027,
      "raan_deg": 185.7179,
      "arg_perigee_deg": 270.6383,
      "mean_anomaly_deg": 89.4295,
      "mean_motion_rev_day": 15.02534263
    },
    {
      "epoch": "2026-04-10T06:45:50.790240Z",
      "apogee_km": 560.0593887356781,
      "perigee_km": 558.1000412466965,
      "latitude_deg": 3.5757863411240856e-05,
      "longitude_deg": -119.68031048943834,
      "height_km": 558.8677064590433,
      "semi_major_axis_km": 6937.2167149911875,
      "eccentricity": 0.00014122,
      "inclination_deg": 43.0019,
      "raan_deg": 180.2992,
      "arg_perigee_deg": 269.4975,
      "mean_anomaly_deg": 90.5706,
      "mean_motion_rev_day": 15.02535941
    }
  ]
}